GLOBALSTAR M035         
1 25851U 99037A   25181.86567331 -.00000108  00000+0 -16880-2 0  9990
2 25851  51.9969  24.4613 0013966   7.0634   5.6577 11.04538790 97775
GLOBALSTAR M032         
1 25852U 99037B   25182.08788655 -.00000085  00000+0 -58233-3 0  9993
2 25852  51.9911 208.2051 0012305 190.3153 169.7396 11.19061908136390
GLOBALSTAR M051         
1 25853U 99037C   25181.96919798 -.00000080  00000+0 -20257-3 0  9994
2 25853  51.9820   7.6448 0000393 148.8932 211.1902 11.42204747133981
GLOBALSTAR M030         
1 25854U 99037D   25182.10263693 -.00000079  00000+0 -91338-4 0  9995
2 25854  51.9842 172.5439 0003024  66.4612 293.6523 11.55108698151753
GLOBALSTAR M048         
1 25872U 99041A   25181.59232391 -.00000048  00000+0  59912-3 0  9999
2 25872  51.9389 304.1074 0013556 205.5104 167.5609 11.33857612126502
GLOBALSTAR M026         
1 25873U 99041B   25181.63297223 -.00000012  00000+0  19054-2 0  9993
2 25873  51.9985 142.7976 0002311 302.7476 228.1628 11.06840564149970
GLOBALSTAR M043         
1 25874U 99041C   25181.92973676 -.00000051  00000+0  50796-3 0  9991
2 25874  51.9421  51.4969 0013519 338.5935  34.6606 11.25695691124422
GLOBALSTAR M028         
1 25875U 99041D   25181.66036048 -.00000098  00000+0  16926-4 0  9995
2 25875  51.9602 152.8896 0063349 100.4895 260.3112 12.50584210191861
